{
    "links": {
        "self": "http://www.neowsapp.com/rest/v1/neo/3311867?api_key=iIulBulltgU6a56xZRHN4H3l9WmuAYTsLGpBGhQ2"
    },
    "id": "3311867",
    "neo_reference_id": "3311867",
    "name": "(2006 AT3)",
    "designation": "2006 AT3",
    "nasa_jpl_url": "http://ssd.jpl.nasa.gov/sbdb.cgi?sstr=3311867",
    "absolute_magnitude_h": 24.4,
    "estimated_diameter": {
        "kilometers": {
            "estimated_diameter_min": 0.0350392641,
            "estimated_diameter_max": 0.0783501764
        },
        "meters": {
            "estimated_diameter_min": 35.0392641108,
            "estimated_diameter_max": 78.3501764334
        },
        "miles": {
            "estimated_diameter_min": 0.0217723826,
            "estimated_diameter_max": 0.0486845275
        },
        "feet": {
            "estimated_diameter_min": 114.9582192654,
            "estimated_diameter_max": 257.0543928497
        }
    },
    "is_potentially_hazardous_asteroid": false,
    "close_approach_data": [
        {
            "close_approach_date": "2006-01-08",
            "close_approach_date_full": "2006-Jan-08 07:02",
            "epoch_date_close_approach": 1136703720000,
            "relative_velocity": {
                "kilometers_per_second": "10.0232918417",
                "kilometers_per_hour": "36083.8506301128",
                "miles_per_hour": "22421.1015206943"
            },
            "miss_distance": {
                "astronomical": "0.0854197339",
                "lunar": "33.2282764871",
                "kilometers": "12778610.247406793",
                "miles": "7940260.2129800234"
            },
            "orbiting_body": "Earth"
        }
    ],
    "orbital_data": {
        "orbit_id": "9",
        "orbit_determination_date": "2017-04-06 09:09:27",
        "first_observation_date": "2006-01-07",
        "last_observation_date": "2006-01-22",
        "data_arc_in_days": 15,
        "observations_used": 33,
        "orbit_uncertainty": "8",
        "minimum_orbit_intersection": ".085406",
        "jupiter_tisserand_invariant": "3.361",
        "epoch_osculation": "2453744.5",
        "eccentricity": ".5324739488930639",
        "semi_major_axis": "2.285872925885305",
        "inclination": "14.78152187024167",
        "ascending_node_longitude": "288.2323734978983",
        "orbital_period": "1262.340606392867",
        "perihelion_distance": "1.068705142371415",
        "perihelion_argument": "178.743479461261",
        "aphelion_distance": "3.503040709399196",
        "perihelion_time": "2453743.006186757900",
        "mean_anomaly": ".4260124125236558",
        "mean_motion": ".2851845200707743",
        "equinox": "J2000",
        "orbit_class": {
            "orbit_class_type": "AMO",
            "orbit_class_description": "Near-Earth asteroid orbits similar to that of 1221 Amor",
            "orbit_class_range": "1.017 AU < q (perihelion) < 1.3 AU"
        }
    },
    "is_sentry_object": false
}